LANDSAT 9               
1 49260U 21088A   24114.16667544  .00001599  00000+0  36456-3 0  9991
2 49260  98.1897 184.7097 0001146  83.4564 276.6765 14.57156720136673
